{
    "links": {
        "self": "http://www.neowsapp.com/rest/v1/neo/3841679?api_key=iIulBulltgU6a56xZRHN4H3l9WmuAYTsLGpBGhQ2"
    },
    "id": "3841679",
    "neo_reference_id": "3841679",
    "name": "(2019 JL)",
    "designation": "2019 JL",
    "nasa_jpl_url": "http://ssd.jpl.nasa.gov/sbdb.cgi?sstr=3841679",
    "absolute_magnitude_h": 26.1,
    "estimated_diameter": {
        "kilometers": {
            "estimated_diameter_min": 0.0160160338,
            "estimated_diameter_max": 0.0358129403
        },
        "meters": {
            "estimated_diameter_min": 16.0160337979,
            "estimated_diameter_max": 35.8129403019
        },
        "miles": {
            "estimated_diameter_min": 0.0099518989,
            "estimated_diameter_max": 0.0222531225
        },
        "feet": {
            "estimated_diameter_min": 52.5460443254,
            "estimated_diameter_max": 117.4965270602
        }
    },
    "is_potentially_hazardous_asteroid": false,
    "close_approach_data": [
        {
            "close_approach_date": "2019-05-12",
            "close_approach_date_full": "2019-May-12 08:46",
            "epoch_date_close_approach": 1557650760000,
            "relative_velocity": {
                "kilometers_per_second": "9.1699390278",
                "kilometers_per_hour": "33011.7805001749",
                "miles_per_hour": "20512.2366113448"
            },
            "miss_distance": {
                "astronomical": "0.0367071841",
                "lunar": "14.2790946149",
                "kilometers": "5491316.555057867",
                "miles": "3412145.8840058846"
            },
            "orbiting_body": "Earth"
        }
    ],
    "orbital_data": {
        "orbit_id": "4",
        "orbit_determination_date": "2019-05-13 07:32:02",
        "first_observation_date": "2019-05-01",
        "last_observation_date": "2019-05-13",
        "data_arc_in_days": 12,
        "observations_used": 21,
        "orbit_uncertainty": "8",
        "minimum_orbit_intersection": ".0299136",
        "jupiter_tisserand_invariant": "3.543",
        "epoch_osculation": "2458605.5",
        "eccentricity": ".5224638756832569",
        "semi_major_axis": "2.112699538528977",
        "inclination": "6.366815678180586",
        "ascending_node_longitude": "223.6147684637468",
        "orbital_period": "1121.643988450652",
        "perihelion_distance": "1.008890349474899",
        "perihelion_argument": "31.79946067755705",
        "aphelion_distance": "3.216508727583054",
        "perihelion_time": "2458635.658193656771",
        "mean_anomaly": "350.320502915159",
        "mean_motion": ".3209574550453168",
        "equinox": "J2000",
        "orbit_class": {
            "orbit_class_type": "APO",
            "orbit_class_description": "Near-Earth asteroid orbits which cross the Earth’s orbit similar to that of 1862 Apollo",
            "orbit_class_range": "a (semi-major axis) > 1.0 AU; q (perihelion) < 1.017 AU"
        }
    },
    "is_sentry_object": false
}